{
  "type": "FeatureCollection",
  "features": [
    {
      "type": "Feature",
      "properties": {
        "norad_id": 66718,
        "name": "TRANSPORTER-15 BE",
        "group": "last-30-days",
        "lat": -25.496693781968553,
        "lon": -118.23212397879801,
        "alt_km": 520.0422410183,
        "timestamp": "2025-12-19T16:54:42.967398+00:00",
        "meta_object_name": "TRANSPORTER-15 BE",
        "meta_object_id": "2025-276BE",
        "meta_epoch": "2025-12-19T03:20:38.364288",
        "meta_mean_motion": 15.17065453,
        "meta_eccentricity": 0.00030876,
        "meta_inclination": 97.4435,
        "meta_ra_of_asc_node": 64.7874,
        "meta_arg_of_pericenter": 287.4991,
        "meta_mean_anomaly": 72.5905,
        "meta_ephemeris_type": 0,
        "meta_classification_type": "U",
        "meta_norad_cat_id": 66718,
        "meta_element_set_no": 999,
        "meta_rev_at_epoch": 309,
        "meta_bstar": 0.00022160705,
        "meta_mean_motion_dot": 4.321e-05,
        "meta_mean_motion_ddot": 0,
        "tle_line1": "1 66718U 25276BE  25353.13933292  .00004321  00000+0  22161-3 0  9994",
        "tle_line2": "2 66718  97.4435  64.7874 0003087 287.4991  72.5905 15.17065453  3093"
      },
      "geometry": {
        "type": "Point",
        "coordinates": [
          -118.23212397879801,
          -25.496693781968553
        ]
      }
    },
    {
      "type": "Feature",
      "properties": {
        "norad_id": 66719,
        "name": "TRANSPORTER-15 BF",
        "group": "last-30-days",
        "lat": -33.344821081049595,
        "lon": -119.58592199840005,
        "alt_km": 519.3570168133629,
        "timestamp": "2025-12-19T16:54:42.967410+00:00",
        "meta_object_name": "TRANSPORTER-15 BF",
        "meta_object_id": "2025-276BF",
        "meta_epoch": "2025-12-19T03:18:36.218016",
        "meta_mean_motion": 15.17176146,
        "meta_eccentricity": 0.00031602,
        "meta_inclination": 97.4451,
        "meta_ra_of_asc_node": 64.7934,
        "meta_arg_of_pericenter": 270.7714,
        "meta_mean_anomaly": 89.3158,
        "meta_ephemeris_type": 0,
        "meta_classification_type": "U",
        "meta_norad_cat_id": 66719,
        "meta_element_set_no": 999,
        "meta_rev_at_epoch": 309,
        "meta_bstar": 0.00022443496,
        "meta_mean_motion_dot": 4.391e-05,
        "meta_mean_motion_ddot": 0,
        "tle_line1": "1 66719U 25276BF  25353.13791919  .00004391  00000+0  22443-3 0  9993",
        "tle_line2": "2 66719  97.4451  64.7934 0003160 270.7714  89.3158 15.17176146  3097"
      },
      "geometry": {
        "type": "Point",
        "coordinates": [
          -119.58592199840005,
          -33.344821081049595
        ]
      }
    },
    {
      "type": "Feature",
      "properties": {
        "norad_id": 66720,
        "name": "TRANSPORTER-15 BG",
        "group": "last-30-days",
        "lat": -81.3777927621619,
        "lon": 124.97500180984214,
        "alt_km": 518.6533993065195,
        "timestamp": "2025-12-19T16:54:42.967421+00:00",
        "meta_object_name": "TRANSPORTER-15 BG",
        "meta_object_id": "2025-276BG",
        "meta_epoch": "2025-12-18T17:33:30.965760",
        "meta_mean_motion": 15.18012144,
        "meta_eccentricity": 0.00023448,
        "meta_inclination": 97.4457,
        "meta_ra_of_asc_node": 64.4217,
        "meta_arg_of_pericenter": 207.0111,
        "meta_mean_anomaly": 153.1002,
        "meta_ephemeris_type": 0,
        "meta_classification_type": "U",
        "meta_norad_cat_id": 66720,
        "meta_element_set_no": 999,
        "meta_rev_at_epoch": 303,
        "meta_bstar": 0.00024087058,
        "meta_mean_motion_dot": 4.832e-05,
        "meta_mean_motion_ddot": 0,
        "tle_line1": "1 66720U 25276BG  25352.73160840  .00004832  00000+0  24087-3 0  9999",
        "tle_line2": "2 66720  97.4457  64.4217 0002344 207.0111 153.1002 15.18012144  3033"
      },
      "geometry": {
        "type": "Point",
        "coordinates": [
          124.97500180984214,
          -81.3777927621619
        ]
      }
    },
    {
      "type": "Feature",
      "properties": {
        "norad_id": 66721,
        "name": "TRANSPORTER-15 BH",
        "group": "last-30-days",
        "lat": -28.02554412389511,
        "lon": -118.65811392982035,
        "alt_km": 520.6850645185441,
        "timestamp": "2025-12-19T16:54:42.967431+00:00",
        "meta_object_name": "TRANSPORTER-15 BH",
        "meta_object_id": "2025-276BH",
        "meta_epoch": "2025-12-17T18:05:25.919808",
        "meta_mean_motion": 15.17086968,
        "meta_eccentricity": 0.0002651,
        "meta_inclination": 97.4398,
        "meta_ra_of_asc_node": 63.4152,
        "meta_arg_of_pericenter": 311.0697,
        "meta_mean_anomaly": 49.0307,
        "meta_ephemeris_type": 0,
        "meta_classification_type": "U",
        "meta_norad_cat_id": 66721,
        "meta_element_set_no": 999,
        "meta_rev_at_epoch": 288,
        "meta_bstar": 0.00023788453,
        "meta_mean_motion_dot": 4.646e-05,
        "meta_mean_motion_ddot": 0,
        "tle_line1": "1 66721U 25276BH  25351.75377222  .00004646  00000+0  23788-3 0  9995",
        "tle_line2": "2 66721  97.4398  63.4152 0002651 311.0697  49.0307 15.17086968  2888"
      },
      "geometry": {
        "type": "Point",
        "coordinates": [
          -118.65811392982035,
          -28.02554412389511
        ]
      }
    },
    {
      "type": "Feature",
      "properties": {
        "norad_id": 66722,
        "name": "TRANSPORTER-15 BJ",
        "group": "last-30-days",
        "lat": -70.7080421804667,
        "lon": 87.28639130743528,
        "alt_km": 519.4303112899352,
        "timestamp": "2025-12-19T16:54:42.967448+00:00",
        "meta_object_name": "TRANSPORTER-15 BJ",
        "meta_object_id": "2025-276BJ",
        "meta_epoch": "2025-12-19T04:34:29.040096",
        "meta_mean_motion": 15.1818714,
        "meta_eccentricity": 0.00020655,
        "meta_inclination": 97.4399,
        "meta_ra_of_asc_node": 64.8603,
        "meta_arg_of_pericenter": 164.6735,
        "meta_mean_anomaly": 195.4562,
        "meta_ephemeris_type": 0,
        "meta_classification_type": "U",
        "meta_norad_cat_id": 66722,
        "meta_element_set_no": 999,
        "meta_rev_at_epoch": 239,
        "meta_bstar": 0.00021815679,
        "meta_mean_motion_dot": 4.392e-05,
        "meta_mean_motion_ddot": 0,
        "tle_line1": "1 66722U 25276BJ  25353.19061389  .00004392  00000+0  21816-3 0  9998",
        "tle_line2": "2 66722  97.4399  64.8603 0002065 164.6735 195.4562 15.18187140  2390"
      },
      "geometry": {
        "type": "Point",
        "coordinates": [
          87.28639130743528,
          -70.7080421804667
        ]
      }
    },
    {
      "type": "Feature",
      "properties": {
        "norad_id": 66723,
        "name": "TRANSPORTER-15 BK",
        "group": "last-30-days",
        "lat": -68.23403469048851,
        "lon": 84.49295788378683,
        "alt_km": 518.9887775881016,
        "timestamp": "2025-12-19T16:54:42.967459+00:00",
        "meta_object_name": "TRANSPORTER-15 BK",
        "meta_object_id": "2025-276BK",
        "meta_epoch": "2025-12-19T04:33:48.590208",
        "meta_mean_motion": 15.18246329,
        "meta_eccentricity": 0.00025203,
        "meta_inclination": 97.4437,
        "meta_ra_of_asc_node": 64.8728,
        "meta_arg_of_pericenter": 182.8257,
        "meta_mean_anomaly": 177.2963,
        "meta_ephemeris_type": 0,
        "meta_classification_type": "U",
        "meta_norad_cat_id": 66723,
        "meta_element_set_no": 999,
        "meta_rev_at_epoch": 235,
        "meta_bstar": 0.00026468376,
        "meta_mean_motion_dot": 5.353e-05,
        "meta_mean_motion_ddot": 0,
        "tle_line1": "1 66723U 25276BK  25353.19014572  .00005353  00000+0  26468-3 0  9997",
        "tle_line2": "2 66723  97.4437  64.8728 0002520 182.8257 177.2963 15.18246329  2353"
      },
      "geometry": {
        "type": "Point",
        "coordinates": [
          84.49295788378683,
          -68.23403469048851
        ]
      }
    },
    {
      "type": "Feature",
      "properties": {
        "norad_id": 66724,
        "name": "TRANSPORTER-15 BL",
        "group": "last-30-days",
        "lat": -66.09184877750867,
        "lon": 82.51236879869502,
        "alt_km": 518.8560518935992,
        "timestamp": "2025-12-19T16:54:42.967470+00:00",
        "meta_object_name": "TRANSPORTER-15 BL",
        "meta_object_id": "2025-276BL",
        "meta_epoch": "2025-12-19T04:33:14.375808",
        "meta_mean_motion": 15.18310124,
        "meta_eccentricity": 0.00021925,
        "meta_inclination": 97.4403,
        "meta_ra_of_asc_node": 64.8609,
        "meta_arg_of_pericenter": 178.4774,
        "meta_mean_anomaly": 181.6467,
        "meta_ephemeris_type": 0,
        "meta_classification_type": "U",
        "meta_norad_cat_id": 66724,
        "meta_element_set_no": 999,
        "meta_rev_at_epoch": 235,
        "meta_bstar": 0.00029733144,
        "meta_mean_motion_dot": 6.033e-05,
        "meta_mean_motion_ddot": 0,
        "tle_line1": "1 66724U 25276BL  25353.18974972  .00006033  00000+0  29733-3 0  9990",
        "tle_line2": "2 66724  97.4403  64.8609 0002192 178.4774 181.6467 15.18310124  2358"
      },
      "geometry": {
        "type": "Point",
        "coordinates": [
          82.51236879869502,
          -66.09184877750867
        ]
      }
    }
  ]
}